*******************************************************************************
Ephemeris / WWW_USER Mon Mar 10 14:35:48 2025 Pasadena, USA      / Horizons    
*******************************************************************************
Target body name: 468861 (2013 LU28)              {source: JPL#36}
Center body name: Earth (399)                     {source: DE441}
Center-site name: Mauna Kea
*******************************************************************************
Start time      : A.D. 2019-Jan-19 04:15:00.0000 UT      
Stop  time      : A.D. 2019-Jan-19 16:49:00.0000 UT      
Step-size       : 1 minutes
*******************************************************************************
Target pole/equ : undefined
Target radii    : undefined                                                    
Center geodetic : 204.5278, 19.8260847, 4.21024   {E-lon(deg),Lat(deg),Alt(km)}
Center cylindric: 204.5278, 6006.35451, 2151.0229 {E-lon(deg),Dxy(km),Dz(km)}
Center pole/equ : ITRF93                          {East-longitude positive}
Center radii    : 6378.137, 6378.137, 6356.752 km {Equator_a, b, pole_c}       
Target primary  : Sun
Vis. interferer : MOON (R_eq= 1737.400) km        {source: DE441}
Rel. light bend : Sun                             {source: DE441}
Rel. lght bnd GM: 1.3271E+11 km^3/s^2                                          
Small-body perts: Yes                             {source: SB441-N16}
Atmos refraction: NO (AIRLESS)
RA format       : HMS
Time format     : CAL 
Calendar mode   : Mixed Julian/Gregorian
RTS-only print  : NO       
EOP file        : eop.250307.p250603                                           
EOP coverage    : DATA-BASED 1962-JAN-20 TO 2025-MAR-07. PREDICTS-> 2025-JUN-02
Units conversion: 1 au= 149597870.700 km, c= 299792.458 km/s, 1 day= 86400.0 s 
Table cut-offs 1: Elevation (-90.0deg=NO ),Airmass (>38.000=NO), Daylight (YES)
Table cut-offs 2: Solar elongation (  0.0,180.0=NO ),Local Hour Angle( 0.0=NO )
Table cut-offs 3: RA/DEC angular rate (     0.0=NO )                           
*******************************************************************************
Initial IAU76/J2000 heliocentric ecliptic osculating elements (au, days, deg.):
  EPOCH=  2459491.5 ! 2021-Oct-04.00 (TDB)         Residual RMS= .14077        
   EC= .9545524767334098   QR= 8.741840911970645   TP= 2460480.7801673855      
   OM= 275.9923561772391   W=  152.9171912923278   IN= 125.3473013584344       
  Equivalent ICRF heliocentric cartesian coordinates (au, au/d):
   X=-6.020062670108302E+00  Y=-1.182282064265113E+00  Z= 8.330249486138040E+00
  VX= 2.086988006100027E-03 VY= 7.079392581348984E-03 VZ=-1.092497303529149E-03
Asteroid physical parameters (km, seconds, rotational period in hours):        
   GM= n.a.                RAD= n.a.               ROTPER= n.a.                
   H= 8.24                 G= .150                 B-V= n.a.                   
                           ALBEDO= n.a.            STYP= n.a.                  
*******************************************************************************
 Date__(UT)__HR:MN     R.A._________(ICRF)_________DEC
******************************************************
$$SOE
 2019-Jan-19 06:18  m  15 24 43.483127 +36 29 30.27630
 2019-Jan-19 06:19  m  15 24 43.486722 +36 29 30.43744
 2019-Jan-19 06:20  m  15 24 43.490316 +36 29 30.59859
 2019-Jan-19 06:21  m  15 24 43.493910 +36 29 30.75974
 2019-Jan-19 06:22  m  15 24 43.497503 +36 29 30.92090
 2019-Jan-19 06:23  m  15 24 43.501097 +36 29 31.08207
 2019-Jan-19 06:24  m  15 24 43.504690 +36 29 31.24325
 2019-Jan-19 06:25  m  15 24 43.508283 +36 29 31.40444
 2019-Jan-19 06:26  m  15 24 43.511875 +36 29 31.56563
 2019-Jan-19 06:27  m  15 24 43.515467 +36 29 31.72684
 2019-Jan-19 06:28  m  15 24 43.519059 +36 29 31.88805
 2019-Jan-19 06:29  m  15 24 43.522651 +36 29 32.04927
 2019-Jan-19 06:30  m  15 24 43.526242 +36 29 32.21049
 2019-Jan-19 06:31  m  15 24 43.529833 +36 29 32.37173
 2019-Jan-19 06:32  m  15 24 43.533424 +36 29 32.53297
 2019-Jan-19 06:33  m  15 24 43.537015 +36 29 32.69422
 2019-Jan-19 06:34  m  15 24 43.540605 +36 29 32.85548
 2019-Jan-19 06:35  m  15 24 43.544195 +36 29 33.01675
 2019-Jan-19 06:36  m  15 24 43.547784 +36 29 33.17802
 2019-Jan-19 06:37  m  15 24 43.551373 +36 29 33.33930
 2019-Jan-19 06:38  m  15 24 43.554962 +36 29 33.50060
 2019-Jan-19 06:39  m  15 24 43.558551 +36 29 33.66189
 2019-Jan-19 06:40  m  15 24 43.562139 +36 29 33.82320
 2019-Jan-19 06:41  m  15 24 43.565727 +36 29 33.98451
 2019-Jan-19 06:42  m  15 24 43.569314 +36 29 34.14584
 2019-Jan-19 06:43  m  15 24 43.572902 +36 29 34.30717
 2019-Jan-19 06:44  m  15 24 43.576488 +36 29 34.46851
 2019-Jan-19 06:45  m  15 24 43.580075 +36 29 34.62985
 2019-Jan-19 06:46  m  15 24 43.583661 +36 29 34.79121
 2019-Jan-19 06:47  m  15 24 43.587247 +36 29 34.95257
 2019-Jan-19 06:48  m  15 24 43.590832 +36 29 35.11394
 2019-Jan-19 06:49  m  15 24 43.594417 +36 29 35.27532
 2019-Jan-19 06:50  m  15 24 43.598002 +36 29 35.43670
 2019-Jan-19 06:51  m  15 24 43.601586 +36 29 35.59810
 2019-Jan-19 06:52  m  15 24 43.605170 +36 29 35.75950
 2019-Jan-19 06:53  m  15 24 43.608753 +36 29 35.92091
 2019-Jan-19 06:54  m  15 24 43.612336 +36 29 36.08232
 2019-Jan-19 06:55  m  15 24 43.615919 +36 29 36.24375
 2019-Jan-19 06:56  m  15 24 43.619501 +36 29 36.40518
 2019-Jan-19 06:57  m  15 24 43.623083 +36 29 36.56662
 2019-Jan-19 06:58  m  15 24 43.626665 +36 29 36.72807
 2019-Jan-19 06:59  m  15 24 43.630246 +36 29 36.88953
 2019-Jan-19 07:00  m  15 24 43.633827 +36 29 37.05099
 2019-Jan-19 07:01  m  15 24 43.637407 +36 29 37.21246
 2019-Jan-19 07:02  m  15 24 43.640987 +36 29 37.37394
 2019-Jan-19 07:03  m  15 24 43.644566 +36 29 37.53543
 2019-Jan-19 07:04  m  15 24 43.648145 +36 29 37.69693
 2019-Jan-19 07:05  m  15 24 43.651723 +36 29 37.85843
 2019-Jan-19 07:06  m  15 24 43.655301 +36 29 38.01994
 2019-Jan-19 07:07  m  15 24 43.658879 +36 29 38.18146
 2019-Jan-19 07:08  m  15 24 43.662456 +36 29 38.34299
 2019-Jan-19 07:09  m  15 24 43.666033 +36 29 38.50452
 2019-Jan-19 07:10  m  15 24 43.669609 +36 29 38.66606
 2019-Jan-19 07:11  m  15 24 43.673185 +36 29 38.82761
 2019-Jan-19 07:12  m  15 24 43.676760 +36 29 38.98917
 2019-Jan-19 07:13  m  15 24 43.680335 +36 29 39.15074
 2019-Jan-19 07:14  m  15 24 43.683910 +36 29 39.31231
 2019-Jan-19 07:15  m  15 24 43.687484 +36 29 39.47389
 2019-Jan-19 07:16  m  15 24 43.691057 +36 29 39.63548
 2019-Jan-19 07:17  m  15 24 43.694630 +36 29 39.79707
 2019-Jan-19 07:18  m  15 24 43.698203 +36 29 39.95868
 2019-Jan-19 07:19  m  15 24 43.701775 +36 29 40.12029
 2019-Jan-19 07:20  m  15 24 43.705346 +36 29 40.28191
 2019-Jan-19 07:21  m  15 24 43.708917 +36 29 40.44353
 2019-Jan-19 07:22  m  15 24 43.712487 +36 29 40.60517
 2019-Jan-19 07:23  m  15 24 43.716057 +36 29 40.76681
 2019-Jan-19 07:24  m  15 24 43.719627 +36 29 40.92846
 2019-Jan-19 07:25  m  15 24 43.723196 +36 29 41.09011
 2019-Jan-19 07:26  m  15 24 43.726764 +36 29 41.25178
 2019-Jan-19 07:27  m  15 24 43.730332 +36 29 41.41345
 2019-Jan-19 07:28  m  15 24 43.733900 +36 29 41.57513
 2019-Jan-19 07:29  m  15 24 43.737467 +36 29 41.73681
 2019-Jan-19 07:30  m  15 24 43.741033 +36 29 41.89851
 2019-Jan-19 07:31  m  15 24 43.744599 +36 29 42.06021
 2019-Jan-19 07:32  m  15 24 43.748164 +36 29 42.22192
 2019-Jan-19 07:33  m  15 24 43.751729 +36 29 42.38364
 2019-Jan-19 07:34  m  15 24 43.755293 +36 29 42.54536
 2019-Jan-19 07:35  m  15 24 43.758856 +36 29 42.70709
 2019-Jan-19 07:36  m  15 24 43.762419 +36 29 42.86883
 2019-Jan-19 07:37  m  15 24 43.765982 +36 29 43.03058
 2019-Jan-19 07:38  m  15 24 43.769544 +36 29 43.19233
 2019-Jan-19 07:39  m  15 24 43.773105 +36 29 43.35409
 2019-Jan-19 07:40  m  15 24 43.776666 +36 29 43.51586
 2019-Jan-19 07:41  m  15 24 43.780226 +36 29 43.67764
 2019-Jan-19 07:42  m  15 24 43.783786 +36 29 43.83942
 2019-Jan-19 07:43  m  15 24 43.787345 +36 29 44.00121
 2019-Jan-19 07:44  m  15 24 43.790903 +36 29 44.16301
 2019-Jan-19 07:45  m  15 24 43.794461 +36 29 44.32482
 2019-Jan-19 07:46  m  15 24 43.798018 +36 29 44.48663
 2019-Jan-19 07:47  m  15 24 43.801575 +36 29 44.64845
 2019-Jan-19 07:48  m  15 24 43.805131 +36 29 44.81028
 2019-Jan-19 07:49  m  15 24 43.808687 +36 29 44.97211
 2019-Jan-19 07:50  m  15 24 43.812242 +36 29 45.13395
 2019-Jan-19 07:51  m  15 24 43.815796 +36 29 45.29580
 2019-Jan-19 07:52  m  15 24 43.819350 +36 29 45.45766
 2019-Jan-19 07:53  m  15 24 43.822903 +36 29 45.61952
 2019-Jan-19 07:54  m  15 24 43.826455 +36 29 45.78139
 2019-Jan-19 07:55  m  15 24 43.830007 +36 29 45.94327
 2019-Jan-19 07:56  m  15 24 43.833558 +36 29 46.10516
 2019-Jan-19 07:57  m  15 24 43.837108 +36 29 46.26705
 2019-Jan-19 07:58  m  15 24 43.840658 +36 29 46.42895
 2019-Jan-19 07:59  m  15 24 43.844207 +36 29 46.59085
 2019-Jan-19 08:00  m  15 24 43.847756 +36 29 46.75277
 2019-Jan-19 08:01  m  15 24 43.851304 +36 29 46.91469
 2019-Jan-19 08:02  m  15 24 43.854851 +36 29 47.07662
 2019-Jan-19 08:03  m  15 24 43.858398 +36 29 47.23855
 2019-Jan-19 08:04  m  15 24 43.861944 +36 29 47.40049
 2019-Jan-19 08:05  m  15 24 43.865489 +36 29 47.56244
 2019-Jan-19 08:06  m  15 24 43.869034 +36 29 47.72440
 2019-Jan-19 08:07  m  15 24 43.872578 +36 29 47.88636
 2019-Jan-19 08:08  m  15 24 43.876121 +36 29 48.04833
 2019-Jan-19 08:09  m  15 24 43.879664 +36 29 48.21031
 2019-Jan-19 08:10  m  15 24 43.883206 +36 29 48.37229
 2019-Jan-19 08:11  m  15 24 43.886747 +36 29 48.53428
 2019-Jan-19 08:12  m  15 24 43.890288 +36 29 48.69628
 2019-Jan-19 08:13  m  15 24 43.893827 +36 29 48.85828
 2019-Jan-19 08:14  m  15 24 43.897367 +36 29 49.02029
 2019-Jan-19 08:15  m  15 24 43.900905 +36 29 49.18231
 2019-Jan-19 08:16  m  15 24 43.904443 +36 29 49.34434
 2019-Jan-19 08:17  m  15 24 43.907980 +36 29 49.50637
 2019-Jan-19 08:18  m  15 24 43.911516 +36 29 49.66841
 2019-Jan-19 08:19  m  15 24 43.915052 +36 29 49.83045
 2019-Jan-19 08:20  m  15 24 43.918587 +36 29 49.99250
